{
  "type": "FeatureCollection",
  "features": [
    {
      "type": "Feature",
      "geometry": {
        "type": "Point",
        "coordinates": [
          -120.8789552,
          37.0540007
        ]
      },
      "properties": {
        "id": "walmart-los-banos-pacheco",
        "name": "Walmart Supercenter -- Los Banos (W Pacheco Blvd)",
        "category": "walmart",
        "notes": "DOWNGRADED TO UNVERIFIED 2026-08-12 by the integrating session: the research note itself rates confidence MEDIUM-LOW, the three first-hand reports disagree, and a citywide ordinance may prohibit vehicle sleeping here outright -- that is not 'confirmed policy', which is what verified:true means in this schema. Kept as a pin because it is the only option in a 175-mile dead zone, but it must not read as confirmed. Same standard applied to South Lake Tahoe, where a comparable ordinance meant shipping no pin at all. The ONLY Walmart within 10 miles of the route anywhere in the 175-mile I-5 dead zone between the Grapevine and Patterson -- at every route anchor from mile 126 to mile 250 the nearest Walmart is 21 to 40 miles away, over on CA-99. This one sits about 6 miles off the route line, on CA-152 (W Pacheco Blvd) east of I-5. EVIDENCE CONFLICTS AND YOU SHOULD KNOW IT: May 2023 a traveller asked customer service and was told 'Yes, certainly' and called it the nicest Walmart overnight they could recall, with lots of tree shade in a huge lot; March 2023 someone stayed in an RV alongside another rig without asking; but April 2023 a camper-truck driver phoned and was told 'No overnight allowed.' Two of three signals are positive and no one has reported signage or a tow warning here -- it is one of only two corridor stores absent from AllStays' no-parking list. Against that: Los Banos Municipal Code (Title 9, Ch. 3, Art. 20, Pt. 3) reportedly makes it unlawful to occupy a vehicle for sleeping on ANY parcel in the city between 10 p.m. and 6 a.m., which would cover this lot regardless of what the store says; that text is second-hand via search excerpts, not a page I could fetch. Practical: store hours are 06:00-24:00, NOT 24 hours, so go inside and ask before midnight or you have no one to ask. Park toward the shaded outer edges away from the entrance, arrive late, leave early, buy something. CONFIDENCE: MEDIUM-LOW. Real, specific, first-hand evidence exists, but all of it is roughly three years old and it disagrees with itself, and the city ordinance is a genuine legal risk rather than a theoretical one. Treat as a fallback, not a plan.",
        "confirmed": "2026-08-12",
        "source": "AllStays store #2117 parking reports (community-submitted); location and store number from OpenStreetMap way 311712102",
        "sourceUrl": "https://www.allstays.com/c/Walmart/CA-Los-Banos-Wal-Mart-2117.htm",
        "verified": false
      }
    },
    {
      "type": "Feature",
      "geometry": {
        "type": "Point",
        "coordinates": [
          -121.4928968,
          38.4596032
        ]
      },
      "properties": {
        "id": "walmart-sacramento-delta-shores",
        "name": "Walmart Supercenter -- Sacramento (Delta Shores)",
        "category": "walmart",
        "notes": "VERIFIED FALSE ON PURPOSE: the store is real and the coordinate is a genuine OSM building centroid, but I found NO trustworthy signal either way about its overnight policy -- no dated visitor reports, no signage reports, no store page on AllStays. It is included only because it is the last Walmart near the route that is not affirmatively flagged as prohibited, which is different from being known-good. Absence of evidence is not permission: AllStays itself says its no-parking list is incomplete. This is a newer Supercenter (opened in the Delta Shores development) about 5.6 miles off the mile-375 route anchor, just off I-5 at Cosumnes River Blvd on the south edge of Sacramento -- large, flat, well-lit lot shared with the wider retail centre. Working against it: Sacramento City Code 12.52.030 (unlawful camping) reaches private property, and every other Sacramento-area Walmart on this corridor -- Florin Rd, Gerber Rd, Delta Shores' neighbours in Elk Grove, Rancho Cordova, North Highlands, Citrus Heights, Antelope, West Sacramento -- is on the no-parking list. Call 916-665-1011 and ask the manager before you commit; store hours are 06:00-24:00, so ask before midnight. CONFIDENCE: LOW -- location confirmed, policy entirely unknown.",
        "confirmed": "2026-08-12",
        "source": "OpenStreetMap way 545766729 (store #2464) for location; policy status unresolved -- absent from AllStays' CA no-overnight-parking list and has no AllStays store page",
        "sourceUrl": "https://www.allstays.com/c/walmart-california-nop-locations.htm",
        "verified": false
      }
    }
  ]
}
